COSMOS 2251 DEB         
1 34412U 93036RD  17346.32334934  .00000546  00000-0  16747-3 0  9990
2 34412  73.9540 297.3704 0242578 316.9663  41.2734 14.28739012458070
